{
  "type": "FeatureCollection",
  "features": [
    {
      "type": "Feature",
      "properties": {
        "norad_id": 38495,
        "name": "FENGYUN 1C DEB",
        "group": "fengyun-1c-debris",
        "lat": 58.60852868502139,
        "lon": -155.93008786107373,
        "alt_km": 810.6378619532579,
        "timestamp": "2025-12-18T15:47:11.513116+00:00",
        "meta_object_name": "FENGYUN 1C DEB",
        "meta_object_id": "1999-025ESE",
        "meta_epoch": "2025-12-02T06:20:41.771904",
        "meta_mean_motion": 13.69106573,
        "meta_eccentricity": 0.0252581,
        "meta_inclination": 99.1709,
        "meta_ra_of_asc_node": 353.1036,
        "meta_arg_of_pericenter": 165.9119,
        "meta_mean_anomaly": 194.9245,
        "meta_ephemeris_type": 0,
        "meta_classification_type": "U",
        "meta_norad_cat_id": 38495,
        "meta_element_set_no": 999,
        "meta_rev_at_epoch": 60969,
        "meta_bstar": 0.0025866,
        "meta_mean_motion_dot": 2.759e-05,
        "meta_mean_motion_ddot": 0,
        "tle_line1": "1 38495U 99025ESE 25336.26437236  .00002759  00000+0  25866-2 0  9997",
        "tle_line2": "2 38495  99.1709 353.1036 0252581 165.9119 194.9245 13.69106573609697"
      },
      "geometry": {
        "type": "Point",
        "coordinates": [
          -155.93008786107373,
          58.60852868502139
        ]
      }
    },
    {
      "type": "Feature",
      "properties": {
        "norad_id": 38496,
        "name": "FENGYUN 1C DEB",
        "group": "fengyun-1c-debris",
        "lat": 32.27315757245773,
        "lon": -3.35078153248969,
        "alt_km": 815.9623269686936,
        "timestamp": "2025-12-18T15:47:11.513126+00:00",
        "meta_object_name": "FENGYUN 1C DEB",
        "meta_object_id": "1999-025ESF",
        "meta_epoch": "2025-12-12T06:21:34.809408",
        "meta_mean_motion": 14.09997011,
        "meta_eccentricity": 0.00778076,
        "meta_inclination": 98.7646,
        "meta_ra_of_asc_node": 356.0127,
        "meta_arg_of_pericenter": 7.8363,
        "meta_mean_anomaly": 352.4004,
        "meta_ephemeris_type": 0,
        "meta_classification_type": "U",
        "meta_norad_cat_id": 38496,
        "meta_element_set_no": 999,
        "meta_rev_at_epoch": 81014,
        "meta_bstar": 0.001223388,
        "meta_mean_motion_dot": 2.177e-05,
        "meta_mean_motion_ddot": 0,
        "tle_line1": "1 38496U 99025ESF 25346.26498622  .00002177  00000+0  12234-2 0  9994",
        "tle_line2": "2 38496  98.7646 356.0127 0077807   7.8363 352.4004 14.09997011810145"
      },
      "geometry": {
        "type": "Point",
        "coordinates": [
          -3.35078153248969,
          32.27315757245773
        ]
      }
    },
    {
      "type": "Feature",
      "properties": {
        "norad_id": 38498,
        "name": "FENGYUN 1C DEB",
        "group": "fengyun-1c-debris",
        "lat": -47.2496554989924,
        "lon": 22.93702493077905,
        "alt_km": 1382.8392074206004,
        "timestamp": "2025-12-18T15:47:11.513136+00:00",
        "meta_object_name": "FENGYUN 1C DEB",
        "meta_object_id": "1999-025ESH",
        "meta_epoch": "2025-12-16T19:35:11.968800",
        "meta_mean_motion": 12.96623618,
        "meta_eccentricity": 0.05558926,
        "meta_inclination": 99.6982,
        "meta_ra_of_asc_node": 10.6357,
        "meta_arg_of_pericenter": 62.8897,
        "meta_mean_anomaly": 302.779,
        "meta_ephemeris_type": 0,
        "meta_classification_type": "U",
        "meta_norad_cat_id": 38498,
        "meta_element_set_no": 999,
        "meta_rev_at_epoch": 53796,
        "meta_bstar": 0.0025835338,
        "meta_mean_motion_dot": 1.475e-05,
        "meta_mean_motion_ddot": 0,
        "tle_line1": "1 38498U 99025ESH 25350.81611075  .00001475  00000+0  25835-2 0  9992",
        "tle_line2": "2 38498  99.6982  10.6357 0555892  62.8897 302.7790 12.96623618537965"
      },
      "geometry": {
        "type": "Point",
        "coordinates": [
          22.93702493077905,
          -47.2496554989924
        ]
      }
    },
    {
      "type": "Feature",
      "properties": {
        "norad_id": 38510,
        "name": "FENGYUN 1C DEB",
        "group": "fengyun-1c-debris",
        "lat": 66.04367650281031,
        "lon": -18.40809994936924,
        "alt_km": 810.9921044782095,
        "timestamp": "2025-12-18T15:47:11.513146+00:00",
        "meta_object_name": "FENGYUN 1C DEB",
        "meta_object_id": "1999-025ESV",
        "meta_epoch": "2025-12-16T07:23:50.761824",
        "meta_mean_motion": 14.13330157,
        "meta_eccentricity": 0.00990126,
        "meta_inclination": 98.6018,
        "meta_ra_of_asc_node": 359.2503,
        "meta_arg_of_pericenter": 139.579,
        "meta_mean_anomaly": 221.2794,
        "meta_ephemeris_type": 0,
        "meta_classification_type": "U",
        "meta_norad_cat_id": 38510,
        "meta_element_set_no": 999,
        "meta_rev_at_epoch": 88720,
        "meta_bstar": 0.00055421528,
        "meta_mean_motion_dot": 1.048e-05,
        "meta_mean_motion_ddot": 0,
        "tle_line1": "1 38510U 99025ESV 25350.30822641  .00001048  00000+0  55422-3 0  9996",
        "tle_line2": "2 38510  98.6018 359.2503 0099012 139.5790 221.2794 14.13330157887203"
      },
      "geometry": {
        "type": "Point",
        "coordinates": [
          -18.40809994936924,
          66.04367650281031
        ]
      }
    },
    {
      "type": "Feature",
      "properties": {
        "norad_id": 38512,
        "name": "FENGYUN 1C DEB",
        "group": "fengyun-1c-debris",
        "lat": -9.644410736560326,
        "lon": -124.80653506470479,
        "alt_km": 1011.3368748754565,
        "timestamp": "2025-12-18T15:47:11.513157+00:00",
        "meta_object_name": "FENGYUN 1C DEB",
        "meta_object_id": "1999-025ESX",
        "meta_epoch": "2025-12-10T03:21:08.986176",
        "meta_mean_motion": 13.7397021,
        "meta_eccentricity": 0.02264501,
        "meta_inclination": 98.3804,
        "meta_ra_of_asc_node": 226.2794,
        "meta_arg_of_pericenter": 112.1956,
        "meta_mean_anomaly": 250.339,
        "meta_ephemeris_type": 0,
        "meta_classification_type": "U",
        "meta_norad_cat_id": 38512,
        "meta_element_set_no": 999,
        "meta_rev_at_epoch": 59534,
        "meta_bstar": 0.0014232555,
        "meta_mean_motion_dot": 1.573e-05,
        "meta_mean_motion_ddot": 0,
        "tle_line1": "1 38512U 99025ESX 25344.13968734  .00001573  00000+0  14233-2 0  9993",
        "tle_line2": "2 38512  98.3804 226.2794 0226450 112.1956 250.3390 13.73970210595340"
      },
      "geometry": {
        "type": "Point",
        "coordinates": [
          -124.80653506470479,
          -9.644410736560326
        ]
      }
    },
    {
      "type": "Feature",
      "properties": {
        "norad_id": 38514,
        "name": "FENGYUN 1C DEB",
        "group": "fengyun-1c-debris",
        "lat": -63.09072188209167,
        "lon": -174.52007670977122,
        "alt_km": 915.8704706418021,
        "timestamp": "2025-12-18T15:47:11.513167+00:00",
        "meta_object_name": "FENGYUN 1C DEB",
        "meta_object_id": "1999-025ESZ",
        "meta_epoch": "2025-12-18T01:03:18.975168",
        "meta_mean_motion": 14.15951848,
        "meta_eccentricity": 0.0270189,
        "meta_inclination": 98.0548,
        "meta_ra_of_asc_node": 21.125,
        "meta_arg_of_pericenter": 358.3491,
        "meta_mean_anomaly": 1.6767,
        "meta_ephemeris_type": 0,
        "meta_classification_type": "U",
        "meta_norad_cat_id": 38514,
        "meta_element_set_no": 999,
        "meta_rev_at_epoch": 88071,
        "meta_bstar": 0.0055912774,
        "meta_mean_motion_dot": 0.0001571,
        "meta_mean_motion_ddot": 0,
        "tle_line1": "1 38514U 99025ESZ 25352.04396962  .00015710  00000+0  55913-2 0  9990",
        "tle_line2": "2 38514  98.0548  21.1250 0270189 358.3491   1.6767 14.15951848880715"
      },
      "geometry": {
        "type": "Point",
        "coordinates": [
          -174.52007670977122,
          -63.09072188209167
        ]
      }
    },
    {
      "type": "Feature",
      "properties": {
        "norad_id": 38516,
        "name": "FENGYUN 1C DEB",
        "group": "fengyun-1c-debris",
        "lat": -66.32488511505818,
        "lon": 136.63222890694914,
        "alt_km": 846.2330284616801,
        "timestamp": "2025-12-18T15:47:11.513177+00:00",
        "meta_object_name": "FENGYUN 1C DEB",
        "meta_object_id": "1999-025ETB",
        "meta_epoch": "2025-12-11T05:08:28.629600",
        "meta_mean_motion": 14.34046614,
        "meta_eccentricity": 0.01114605,
        "meta_inclination": 98.4424,
        "meta_ra_of_asc_node": 329.1639,
        "meta_arg_of_pericenter": 129.7908,
        "meta_mean_anomaly": 231.3156,
        "meta_ephemeris_type": 0,
        "meta_classification_type": "U",
        "meta_norad_cat_id": 38516,
        "meta_element_set_no": 999,
        "meta_rev_at_epoch": 84851,
        "meta_bstar": 0.00015782354,
        "meta_mean_motion_dot": 4.29e-06,
        "meta_mean_motion_ddot": 0,
        "tle_line1": "1 38516U 99025ETB 25345.21422025  .00000429  00000+0  15782-3 0  9995",
        "tle_line2": "2 38516  98.4424 329.1639 0111460 129.7908 231.3156 14.34046614848518"
      },
      "geometry": {
        "type": "Point",
        "coordinates": [
          136.63222890694914,
          -66.32488511505818
        ]
      }
    }
  ]
}